{
  "norad_id": 38771,
  "name": "METOP-B",
  "history": [
    {
      "epoch": "2026-03-28T19:15:35.259552Z",
      "apogee_km": 822.0073788159671,
      "perigee_km": 819.0716145670858,
      "latitude_deg": 5.5613140507464365e-05,
      "longitude_deg": 25.757669239585837,
      "height_km": 824.9042103134921,
      "semi_major_axis_km": 7198.676496691526,
      "eccentricity": 0.00020391,
      "inclination_deg": 98.66,
      "raan_deg": 140.8723,
      "arg_perigee_deg": 189.9198,
      "mean_anomaly_deg": 170.194,
      "mean_motion_rev_day": 14.21424433
    },
    {
      "epoch": "2026-03-29T03:42:24.493824Z",
      "apogee_km": 822.0197545247711,
      "perigee_km": 819.0582192237716,
      "latitude_deg": 3.146872875520344e-05,
      "longitude_deg": -100.94907625516588,
      "height_km": 824.9201290760328,
      "semi_major_axis_km": 7198.675986874271,
      "eccentricity": 0.0002057,
      "inclination_deg": 98.6599,
      "raan_deg": 141.2176,
      "arg_perigee_deg": 189.0347,
      "mean_anomaly_deg": 171.0794,
      "mean_motion_rev_day": 14.21424584
    },
    {
      "epoch": "2026-03-30T03:21:30.333024Z",
      "apogee_km": 822.0572470916468,
      "perigee_km": 819.0173909002206,
      "latitude_deg": -3.933519229647309e-06,
      "longitude_deg": -95.72783790097529,
      "height_km": 824.9672911161063,
      "semi_major_axis_km": 7198.674318995933,
      "eccentricity": 0.00021114,
      "inclination_deg": 98.6597,
      "raan_deg": 142.1845,
      "arg_perigee_deg": 186.091,
      "mean_anomaly_deg": 174.0242,
      "mean_motion_rev_day": 14.21425078
    },
    {
      "epoch": "2026-03-30T03:21:30.333888Z",
      "apogee_km": 822.0561616066252,
      "perigee_km": 819.01832107678,
      "latitude_deg": 1.8099028654250468e-05,
      "longitude_deg": -95.72794484866147,
      "height_km": 824.9660505991872,
      "semi_major_axis_km": 7198.674241341702,
      "eccentricity": 0.000211,
      "inclination_deg": 98.6597,
      "raan_deg": 142.1844,
      "arg_perigee_deg": 186.1478,
      "mean_anomaly_deg": 173.9674,
      "mean_motion_rev_day": 14.21425101
    },
    {
      "epoch": "2026-03-30T13:29:41.403264Z",
      "apogee_km": 822.0711400316404,
      "perigee_km": 819.0022014723254,
      "latitude_deg": -2.8620889695333547e-05,
      "longitude_deg": 112.2240528262621,
      "height_km": 824.9843319776452,
      "semi_major_axis_km": 7198.673670751983,
      "eccentricity": 0.00021316,
      "inclination_deg": 98.6596,
      "raan_deg": 142.5988,
      "arg_perigee_deg": 184.7977,
      "mean_anomaly_deg": 175.318,
      "mean_motion_rev_day": 14.2142527
    },
    {
      "epoch": "2026-03-30T21:56:30.621120Z",
      "apogee_km": 822.0849431951838,
      "perigee_km": 818.9876420243063,
      "latitude_deg": 1.8320001784260614e-06,
      "longitude_deg": -14.48263194732405,
      "height_km": 824.9998925103238,
      "semi_major_axis_km": 7198.673292609745,
      "eccentricity": 0.00021513,
      "inclination_deg": 98.6595,
      "raan_deg": 142.9441,
      "arg_perigee_deg": 183.8938,
      "mean_anomaly_deg": 176.2223,
      "mean_motion_rev_day": 14.21425382
    },
    {
      "epoch": "2026-03-31T19:54:14.581152Z",
      "apogee_km": 822.1231042131103,
      "perigee_km": 818.94705009267,
      "latitude_deg": 2.9094113471621947e-05,
      "longitude_deg": 16.07994242510517,
      "height_km": 825.0410518320256,
      "semi_major_axis_km": 7198.67207715289,
      "eccentricity": 0.0002206,
      "inclination_deg": 98.6593,
      "raan_deg": 143.8418,
      "arg_perigee_deg": 181.3662,
      "mean_anomaly_deg": 178.751,
      "mean_motion_rev_day": 14.21425742
    },
    {
      "epoch": "2026-04-01T19:33:20.365056Z",
      "apogee_km": 822.1597437058062,
      "perigee_km": 818.9088237540736,
      "latitude_deg": -1.879134824425251e-05,
      "longitude_deg": 21.301314353658572,
      "height_km": 825.0776554433534,
      "semi_major_axis_km": 7198.67128372994,
      "eccentricity": 0.0002258,
      "inclination_deg": 98.6591,
      "raan_deg": 144.8086,
      "arg_perigee_deg": 178.7946,
      "mean_anomaly_deg": 181.3237,
      "mean_motion_rev_day": 14.21425977
    },
    {
      "epoch": "2026-04-02T19:12:26.109216Z",
      "apogee_km": 822.206496210053,
      "perigee_km": 818.857675351348,
      "latitude_deg": 2.166880748155927e-06,
      "longitude_deg": 26.522841449565774,
      "height_km": 825.1202433035538,
      "semi_major_axis_km": 7198.669085780701,
      "eccentricity": 0.0002326,
      "inclination_deg": 98.6589,
      "raan_deg": 145.7754,
      "arg_perigee_deg": 175.8652,
      "mean_anomaly_deg": 184.2545,
      "mean_motion_rev_day": 14.21426628
    },
    {
      "epoch": "2026-04-02T20:53:47.945184Z",
      "apogee_km": 822.2164200707939,
      "perigee_km": 818.847299071138,
      "latitude_deg": 7.911266520753188e-05,
      "longitude_deg": 1.1814654962193727,
      "height_km": 825.1295992795356,
      "semi_major_axis_km": 7198.668859570966,
      "eccentricity": 0.00023401,
      "inclination_deg": 98.6589,
      "raan_deg": 145.8444,
      "arg_perigee_deg": 175.628,
      "mean_anomaly_deg": 184.4919,
      "mean_motion_rev_day": 14.21426695
    },
    {
      "epoch": "2026-04-03T18:51:31.821408Z",
      "apogee_km": 822.2503084320888,
      "perigee_km": 818.8093456887536,
      "latitude_deg": 1.6964025998046075e-05,
      "longitude_deg": 31.74430233685949,
      "height_km": 825.1564304620616,
      "semi_major_axis_km": 7198.6668270604205,
      "eccentricity": 0.000239,
      "inclination_deg": 98.6587,
      "raan_deg": 146.742,
      "arg_perigee_deg": 173.278,
      "mean_anomaly_deg": 186.843,
      "mean_motion_rev_day": 14.21427297
    },
    {
      "epoch": "2026-04-04T04:59:42.828576Z",
      "apogee_km": 822.26740803764,
      "perigee_km": 818.7907402704668,
      "latitude_deg": -2.302428496972778e-05,
      "longitude_deg": -120.30344180109674,
      "height_km": 825.1692990846017,
      "semi_major_axis_km": 7198.666074154054,
      "eccentricity": 0.00024148,
      "inclination_deg": 98.6586,
      "raan_deg": 147.1564,
      "arg_perigee_deg": 172.2208,
      "mean_anomaly_deg": 187.9007,
      "mean_motion_rev_day": 14.2142752
    },
    {
      "epoch": "2026-04-05T13:05:37.677408Z",
      "apogee_km": 822.3126729189871,
      "perigee_km": 818.7424232497196,
      "latitude_deg": 1.5317406686882364e-05,
      "longitude_deg": 118.21167246922059,
      "height_km": 825.1977475411167,
      "semi_major_axis_km": 7198.664548084354,
      "eccentricity": 0.00024798,
      "inclination_deg": 98.6584,
      "raan_deg": 148.4683,
      "arg_perigee_deg": 169.0334,
      "mean_anomaly_deg": 191.0898,
      "mean_motion_rev_day": 14.21427972
    },
    {
      "epoch": "2026-04-05T19:51:05.004000Z",
      "apogee_km": 822.3205868308623,
      "perigee_km": 818.7342122270175,
      "latitude_deg": -8.038510945006267e-05,
      "longitude_deg": 16.846501271586344,
      "height_km": 825.2020988409306,
      "semi_major_axis_km": 7198.66439952894,
      "eccentricity": 0.0002491,
      "inclination_deg": 98.6583,
      "raan_deg": 148.7445,
      "arg_perigee_deg": 168.4775,
      "mean_anomaly_deg": 191.6459,
      "mean_motion_rev_day": 14.21428016
    },
    {
      "epoch": "2026-04-06T05:59:15.995616Z",
      "apogee_km": 822.3328117696265,
      "perigee_km": 818.7209541529901,
      "latitude_deg": -4.3637370631176854e-05,
      "longitude_deg": -135.20139022727687,
      "height_km": 825.20698369172,
      "semi_major_axis_km": 7198.663882961308,
      "eccentricity": 0.00025087,
      "inclination_deg": 98.6582,
      "raan_deg": 149.1587,
      "arg_perigee_deg": 167.4131,
      "mean_anomaly_deg": 192.7109,
      "mean_motion_rev_day": 14.21428169
    },
    {
      "epoch": "2026-04-07T19:09:16.263360Z",
      "apogee_km": 822.3948224897849,
      "perigee_km": 818.6558372756444,
      "latitude_deg": 2.1619591078088148e-05,
      "longitude_deg": 27.29009626919839,
      "height_km": 825.2398070061661,
      "semi_major_axis_km": 7198.662329882714,
      "eccentricity": 0.0002597,
      "inclination_deg": 98.658,
      "raan_deg": 150.6777,
      "arg_perigee_deg": 164.0101,
      "mean_anomaly_deg": 196.1159,
      "mean_motion_rev_day": 14.21428629
    },
    {
      "epoch": "2026-04-08T13:44:16.389024Z",
      "apogee_km": 822.4253250888978,
      "perigee_km": 818.6238558761961,
      "latitude_deg": 2.4563633977743528e-05,
      "longitude_deg": 108.53597804893846,
      "height_km": 825.2485366250398,
      "semi_major_axis_km": 7198.661590482547,
      "eccentricity": 0.00026404,
      "inclination_deg": 98.658,
      "raan_deg": 151.4373,
      "arg_perigee_deg": 161.9114,
      "mean_anomaly_deg": 198.2158,
      "mean_motion_rev_day": 14.21428848
    },
    {
      "epoch": "2026-04-09T20:08:49.292160Z",
      "apogee_km": 822.4776357095516,
      "perigee_km": 818.5687632212421,
      "latitude_deg": -3.054640160445614e-05,
      "longitude_deg": 12.39282724023559,
      "height_km": 825.2598575060354,
      "semi_major_axis_km": 7198.6601994653965,
      "eccentricity": 0.0002715,
      "inclination_deg": 98.6577,
      "raan_deg": 152.6801,
      "arg_perigee_deg": 158.6058,
      "mean_anomaly_deg": 201.5233,
      "mean_motion_rev_day": 14.2142926
    },
    {
      "epoch": "2026-04-10T11:21:05.731200Z",
      "apogee_km": 822.5029362389914,
      "perigee_km": 818.5422337353311,
      "latitude_deg": 6.36994953217226e-05,
      "longitude_deg": 144.32128601661526,
      "height_km": 825.2666122889834,
      "semi_major_axis_km": 7198.659584987161,
      "eccentricity": 0.0002751,
      "inclination_deg": 98.6576,
      "raan_deg": 153.3015,
      "arg_perigee_deg": 157.3228,
      "mean_anomaly_deg": 202.8072,
      "mean_motion_rev_day": 14.21429442
    }
  ]
}